{"type":"Topology","arcs":[[[4927,7110],[-34,-36],[-6,-27],[-35,-9],[0,-380],[-29,-37],[-27,4],[-16,-24],[-98,-55],[-28,-52],[-10,-39],[-35,-39],[-8,-69],[7,-23],[55,-12],[34,-75],[-17,-74],[-17,-22],[-9,-74],[7,-53],[-19,-19],[18,-100],[-9,-70],[-17,-41],[37,-30],[60,-69],[79,-18],[50,-75],[70,-20],[63,-66],[47,-102],[72,-71],[50,-5],[47,-29],[27,-51],[27,-17],[6,-65],[13,-34],[0,-177]],[[5282,4955],[-269,0],[-402,0],[-402,0],[-403,0],[-402,0],[-268,0]],[[3136,4955],[0,434],[0,290],[0,460],[-17,34],[-30,30],[-50,10],[-32,68],[-40,59],[7,28],[86,79],[23,61],[10,57]],[[3093,6565],[-8,49],[8,57],[-17,89],[-1,57],[-45,72],[-18,108],[-17,30],[6,52],[-8,37],[5,62],[-17,86],[0,109],[-9,60],[3,84],[-11,20],[7,48],[-4,61],[-13,64],[-24,67],[-16,23],[-4,72],[-14,18],[-39,144],[6,73],[-12,63],[9,35],[-14,69],[23,77],[-53,210],[1,16],[211,0],[362,0],[272,0],[7,12],[0,236],[73,-9],[52,-25],[12,-17],[7,-83],[41,-166],[0,-71],[49,-53],[47,-17],[69,9],[33,-41],[147,-11],[16,-12],[11,-49],[22,-17],[109,17],[17,36],[80,22],[114,-9],[40,-25],[97,-28],[-26,-36],[3,-25],[73,1],[25,-34],[2,-43],[32,-64],[38,12],[-5,40],[19,19],[43,7],[46,-10],[14,-48],[21,-22],[79,-28],[29,-32],[1,-27],[46,-11],[3,-21],[60,-8],[63,19],[85,70],[61,37],[34,-5],[22,-79],[35,-10],[47,13],[23,-13],[146,21],[43,-10],[38,-60],[33,-16],[40,18],[57,-25],[-32,-30],[-141,-78],[-184,-66],[-107,-63],[-65,-69],[-26,-12],[-206,-245],[-29,-17],[-30,-41],[-59,-55],[-41,-26],[-82,-71],[-6,-23]],[[6787,6013],[-22,10],[-30,41],[0,40],[30,78],[-17,17],[-30,-18],[-47,12],[5,41],[24,29],[-4,51],[12,22],[-4,61],[-45,48],[-36,18],[-31,0],[-20,26],[15,27],[-12,37],[-30,23],[-61,12],[-83,32],[-44,-12],[-34,17],[-46,2],[-116,74],[-413,127],[-46,111],[-66,25],[-8,28]],[[5628,6992],[162,71],[75,78],[17,10],[164,22],[70,47],[40,46],[28,-4],[39,13],[33,63],[84,75],[24,-9],[-4,-42],[41,-17],[8,-42],[31,-52],[-17,-89],[17,-31],[23,36],[62,59],[15,-22],[56,13],[66,-6],[44,-14],[27,-30],[42,-17],[13,-42],[57,-92],[28,-19],[18,-53],[50,-10],[48,7],[12,18],[46,0],[36,-53],[51,28],[23,-27],[32,-11],[57,72],[84,45],[57,46],[23,-11],[95,22],[139,-16],[19,4],[76,43],[38,13],[66,-1],[11,-32],[-18,-126],[91,-49],[21,0],[53,28],[36,-52],[17,5],[43,53],[49,-6],[44,29],[36,-13],[-20,-61],[22,-57],[-49,5],[9,-69],[-23,-25],[95,-41],[-9,-37],[22,-30],[44,-24],[-5,-20],[-49,-11],[-83,19],[-95,13],[-84,28],[-30,-68],[-2,-63],[-37,15],[-37,37],[-44,59],[-62,29],[-37,4],[-33,22],[-85,-7],[-48,-75],[-97,-6],[-10,-15],[-65,14],[-71,-13],[-19,-18],[-31,-79],[-62,-30],[-41,-72],[-37,14],[35,73],[24,12],[14,43],[-14,16],[-44,-33],[-26,17],[-18,-22],[-30,-68],[-53,-17],[1,53],[-31,21],[-15,-78],[-33,-20],[-45,-86],[-26,-77],[-89,-152],[-17,-12],[1,-45]],[[8493,3789],[-346,-16],[-208,-7]],[[7939,3766],[0,40],[-220,1],[-384,0],[-236,0]],[[7099,3807],[51,43],[48,76],[46,125],[47,83],[43,143],[23,156],[-2,168],[-20,92],[-96,288],[-16,58],[9,47],[33,57],[-5,114],[-28,57],[1,25],[44,52],[60,140],[1,80],[12,59],[-14,68],[18,28],[50,11],[18,116],[25,-5],[26,45],[37,-23],[35,75],[29,34],[21,47],[16,-27],[10,-55],[-19,-24],[7,-50],[-22,-62],[30,-18],[7,53],[20,59],[15,-3],[-10,-75],[-15,-23],[5,-46],[45,103],[20,112],[-9,83],[27,59],[66,40],[54,2],[44,11],[2,22],[-37,6],[-35,58],[10,69],[36,34],[20,36],[50,18],[20,23],[82,-46],[49,-39],[58,2],[39,-21],[30,-42],[22,-49],[63,-2],[41,-39],[52,-13],[18,-23],[68,-19],[52,-52],[-10,-27],[35,-51],[7,-43],[-53,-20],[-10,-45],[10,-29],[38,-40],[14,-39],[9,-86],[-12,-52],[-2,-143],[-13,-51],[-74,-42],[-9,-24],[-16,-110],[-36,-12],[-7,-27],[-52,0],[-28,-30],[-14,-51],[-8,-101],[16,-30],[93,-49],[31,28],[27,50],[20,-15],[36,72],[6,27],[50,81],[75,25],[21,25],[46,11],[46,-28],[50,-70],[22,-72],[24,-187],[13,-51],[9,-115],[20,-115],[25,-56],[-28,-131],[5,-25],[-16,-88],[-27,-49],[-25,18],[2,46],[-30,21],[-45,-46],[17,-21],[-37,-28],[-11,-102],[-20,-24],[-43,-17],[-43,-71],[-31,-157],[-19,-8],[-63,-113],[-18,-52]],[[6360,7945],[-21,-15],[-108,-49],[-7,-31],[-71,-37],[-32,20],[0,34],[38,31],[120,64],[82,59],[24,-23],[-25,-53]],[[7198,6915],[-30,1],[-9,52],[22,9],[17,-62]],[[6740,7537],[-24,-11],[-52,6],[-21,-35],[-46,-34],[-75,-77],[-38,-57],[-37,-71],[-23,40],[-15,54],[-42,11],[5,57],[33,29],[39,59],[92,54],[64,20],[97,0],[43,-45]],[[7658,6363],[-35,-29],[-21,15],[27,88],[22,3],[7,-77]],[[8485,6599],[-33,-43],[-39,18],[-22,-12],[-50,20],[22,35],[34,16],[4,43],[51,-23],[7,-30],[26,-24]],[[8120,6455],[-19,-28],[-30,7],[-39,46],[48,-2],[19,11],[21,-34]],[[8854,1604],[-16,39],[-29,38],[-53,34],[-12,25],[-13,79],[-59,-19],[-43,-58],[-44,-3],[-27,-14],[-26,38],[-68,31],[-29,-12],[-19,-35],[-26,2],[-45,49],[-18,33],[-44,17],[-46,-7],[-46,21],[-13,20],[-8,52],[-31,73],[-35,18],[-15,29],[-27,2],[-53,-18],[-35,43],[-42,-29]],[[7932,2052],[2,214],[2,376],[3,482],[3,376],[-3,266]],[[8493,3789],[34,-19],[27,4],[40,-42],[51,-17],[31,-44],[56,-11],[23,33],[18,-28],[-15,-32],[-57,-4],[14,-38],[40,26],[87,-11],[47,-39],[27,2],[31,27],[46,7],[32,21],[55,19],[67,-14],[56,5],[29,16],[133,137],[133,77],[54,18],[11,13],[144,60],[0,-467],[0,-415],[-65,-38],[31,-77],[-10,-41],[11,-57],[-23,-45],[-34,-128],[-8,-87],[-34,-91],[1,-38],[-15,-69],[-75,-65],[-29,-51],[-41,-36],[-67,-24],[-13,29],[-24,-4],[-31,-37],[-7,-37],[-46,-11],[-27,-51],[-3,-58],[-27,-19],[18,-28],[-3,-67],[-27,-13],[-23,15],[-8,28],[-33,29],[-22,-13],[-33,-68],[-15,-60],[-14,-15],[8,-46],[-2,-80],[-29,2],[-10,-20],[-18,-82],[-73,-22],[-33,6]],[[3136,4955],[-59,-1],[1,-37],[24,-38],[-1,-57],[-17,-14],[6,-36],[34,-4],[11,-63],[-21,-50],[-2,-53],[-22,-80],[-30,-61],[47,-67],[17,-87]],[[3124,4307],[-53,11],[-34,53],[-7,41],[-37,6],[-24,36],[-37,3],[-43,26],[-31,3],[-46,50],[-26,14],[-82,-18],[-41,9],[-25,-12],[-74,11],[-19,-9],[-23,-46],[-27,-2],[-97,58],[-87,67],[-13,17],[-249,0],[-211,0],[-351,0],[-422,0],[-281,0],[-351,0],[-432,0]],[[1,4625],[0,247],[0,330],[-1,495],[0,247],[7,0],[-1,263],[-1,358],[206,0],[384,0],[192,0],[385,0],[384,0],[384,0],[385,0],[384,0],[384,0]],[[3124,4307],[35,-14],[6,-27],[-8,-57],[25,-46],[-4,-62],[35,-57],[2,-40],[44,-47],[9,-80],[28,-46],[-15,-98],[8,-64],[39,-11],[-8,-27],[31,-18],[-11,-84],[33,-13],[-16,-34],[-3,-39],[20,-27],[6,-40],[-4,-62],[13,-20],[5,-124],[-17,-43],[10,-26],[29,-19],[3,-39]],[[3419,3043],[-1,-34],[30,-20],[28,-115],[34,-54],[32,-16],[-7,-25],[34,-57],[-7,-46],[42,-29]],[[3604,2647],[-173,0],[-259,0],[-346,0],[-345,0],[-346,0],[-260,0],[-172,0],[-346,0],[-260,0],[-270,0]],[[827,2647],[0,453],[0,206],[-223,0],[-295,0],[-308,0],[1,330],[0,412],[0,330],[-1,247]],[[3604,2647],[52,-62],[51,-27],[27,25],[23,-1],[5,-33],[22,-20],[-4,-61],[-29,9],[-8,-31],[-23,-26],[-26,-83],[31,-50],[28,-23],[20,-35],[12,-52],[20,-46],[44,-30],[25,0],[19,-32],[0,-474],[0,-337],[0,-337],[0,-253]],[[3893,668],[-286,0],[-286,0],[-191,0],[-286,0],[-381,0],[-381,0],[-191,0],[-381,0],[-381,0],[-297,0],[-1,310],[-1,494],[-1,433],[-1,309],[-1,433]],[[5282,4955],[22,-89],[35,-17],[11,-39],[-34,-79],[15,-165],[18,-38],[17,-73],[33,-27],[108,-30],[32,-73],[-6,-22]],[[5533,4303],[-6,-14],[44,-48],[35,-28],[20,-37],[5,-49],[22,-25],[47,-30],[27,-30],[12,-56],[-14,-100],[-11,-43],[-42,-43],[-18,-55],[0,-40],[-39,-41],[-66,-21],[-42,-39],[-119,-12],[-26,-33],[-18,-84],[7,-44],[35,-28],[19,-47],[-6,-85],[-53,-81],[-14,-81],[-25,-32],[-45,-13],[-35,-23],[-12,-35],[15,-23],[-3,-77],[-24,-9]],[[5203,2897],[-40,41],[-3,17],[-56,55],[-20,45],[-88,-9],[-167,-4],[-308,-12],[-193,3],[-187,-7],[-191,-1],[-183,5],[-348,13]],[[5203,2897],[-23,-44],[-9,-91],[11,-109],[19,-41],[-1,-54],[23,-41],[15,-61],[104,-117],[22,-53],[95,-88],[19,-27],[18,-51],[12,-66],[0,-70],[18,-49],[30,-28],[18,10],[26,43],[21,6],[60,-27],[41,-29],[23,-35],[-29,-56],[0,-70],[-27,-63],[-22,-74],[-19,-41],[-8,-45],[14,-61],[43,-63],[55,-63],[43,-36],[34,-6],[38,-45],[45,-31],[31,-69],[40,-23],[14,-56],[-5,-34],[32,-80],[-3,-51],[-27,-37],[0,-26],[56,-116],[-3,-19],[28,-32],[33,21],[29,-45],[22,1]],[[6159,655],[-1,-68],[-10,-17],[4,-77],[-27,-83],[-20,-26],[-43,46],[-12,-19],[-15,-73]],[[6035,338],[-29,2]],[[6006,340],[-4,35],[-27,1],[4,-37]],[[5979,339],[12,-77],[-40,-40],[18,-45],[-46,-5],[34,-69],[-25,-26],[-21,-68],[-268,-9],[13,50],[52,81],[30,18],[31,50],[2,53],[-24,33],[-17,54],[-367,0],[-226,0],[-227,0],[-226,0],[-339,0],[-113,0],[-339,0],[0,329]],[[6703,4290],[-364,4],[-220,2],[-219,3],[-367,4]],[[4927,7110],[21,-29],[40,-22],[70,10],[92,38],[64,20],[78,59],[40,-16],[12,20],[55,40],[52,9],[32,-44],[-38,-65],[-4,-65],[-38,-61],[23,-4],[49,23],[21,31],[66,-51],[48,-19],[18,8]],[[6787,6013],[-15,-65],[-21,-19],[-56,-19],[-7,-36],[-54,-101],[-20,-68],[-5,-46],[45,-10],[8,27],[56,41],[44,103],[29,29],[58,20],[50,-55],[-15,-73],[-31,-56],[-19,-54],[-14,-96],[-12,-44],[22,-61],[-22,-48],[-36,-32],[-36,-115],[-3,-67],[13,-30],[0,-45],[-36,-85],[-9,-76],[-26,-61],[-15,-70],[15,-113],[-10,-37],[23,-53],[1,-54],[23,-43],[1,-71],[-13,-34],[3,-106]],[[7037,6091],[-39,-53],[-39,-103],[-20,-72],[-27,-38],[-32,17],[-13,51],[16,51],[32,48],[23,68],[39,14],[12,44],[53,18],[-5,-45]],[[7095,6199],[-8,-22],[-38,-7],[5,53],[41,-24]],[[6703,4290],[-8,-140],[30,-102],[26,-26],[16,-93],[29,-103],[24,-40]],[[6820,3786],[-1,-293],[-1,-382],[-2,-383],[-1,-502],[-38,-41],[11,-62],[-27,-32],[-1,-26],[24,-29],[10,-48],[17,-20],[-6,-61],[19,-76],[-15,-53],[-28,-20],[-5,-36],[-16,-27],[8,-24],[-48,-39],[4,-26],[-30,-40],[-8,-29],[-41,-12],[-20,-59],[24,-33],[-39,-41],[-7,-30],[3,-96],[-3,-66]],[[6603,1200],[-6,-36],[-29,-34],[-13,-39],[33,-80],[-17,-30],[-75,-17],[-25,-18],[-41,-8],[-17,-44],[2,-49],[28,-65],[-21,-64],[-31,3],[-30,25],[-113,70],[-56,-8],[-19,-22],[-37,-74],[23,-55]],[[6603,1200],[42,-11],[19,27],[-13,39],[17,26],[38,-33],[51,13],[-3,-40],[33,13],[21,37],[51,22],[140,-93],[18,57],[23,27],[24,3],[45,38],[32,-60],[40,-2],[45,18],[5,60],[26,24],[18,39],[55,18],[3,-48],[38,-31],[63,-19],[30,9],[18,37],[10,91],[31,57],[19,-12],[43,26],[19,81],[38,24],[41,46],[7,22],[-18,89],[8,18],[73,4],[30,-31],[16,5],[61,47],[40,16],[34,-5],[15,69],[-39,17],[20,48],[-18,46],[20,24]],[[8854,1604],[9,-72],[-2,-41],[-25,-62],[41,-82],[22,-25],[-1,-33],[27,-35],[7,-43],[34,-50],[8,-39],[48,-38],[27,-44],[62,-16],[-159,-172],[-116,-75],[-31,-34],[-8,-49],[-53,-44],[-12,-51],[-82,-40],[-22,-55],[-43,-9],[-71,-40],[-40,-5],[-47,-22],[-44,-33],[-370,17],[-204,9],[-125,-4],[-265,10],[-163,19],[-37,-4],[-218,-3],[-310,-5],[-15,20],[-82,10],[12,-76],[-1,-50],[-214,0],[-356,0]],[[6006,340],[-27,-1]],[[6820,3786],[40,-49],[54,-17],[37,5],[71,30],[77,52]]],"transform":{"scale":[0.0024246858741347023,0.0015165221975374193],"translate":[-104.0566589776297,35.98618572818879]},"objects":{"IL_bordershapes":{"type":"GeometryCollection","geometries":[{"arcs":[[0,1,2,3]],"type":"Polygon","properties":{"name":"Minnesota"}},{"arcs":[[[4,5]],[[6,7,8]],[[9]],[[10]],[[11]],[[12]],[[13]],[[14]]],"type":"MultiPolygon","properties":{"name":"Michigan"}},{"arcs":[[15,16,-7,17]],"type":"Polygon","properties":{"name":"Ohio"}},{"arcs":[[-3,18,19,20]],"type":"Polygon","properties":{"name":"South Dakota"}},{"arcs":[[-20,21,22,23,24]],"type":"Polygon","properties":{"name":"Nebraska"}},{"arcs":[[-24,25,26]],"type":"Polygon","properties":{"name":"Kansas"}},{"arcs":[[-19,-2,27,28,29,-22]],"type":"Polygon","properties":{"name":"Iowa"}},{"arcs":[[-23,-30,30,31,32,33,34,-26]],"type":"Polygon","properties":{"name":"Missouri"}},{"arcs":[[[35,-28,-1,36,-5,37]],[[38]],[[39]]],"type":"MultiPolygon","properties":{"name":"Wisconsin"}},{"arcs":[[-31,-29,-36,40,41,42]],"type":"Polygon","properties":{"name":"Illinois"}},{"arcs":[[[-32,-43,43,-16,44]],[[45,-34]]],"type":"MultiPolygon","properties":{"name":"Kentucky"}},{"arcs":[[-17,-44,-42,46,-8]],"type":"Polygon","properties":{"name":"Indiana"}}]}}}